{
  "norad_id": 28474,
  "name": "NAVSTAR 56 (USA 180)",
  "history": [
    {
      "epoch": "2026-03-26T07:19:28.719264Z",
      "apogee_km": 20634.14352178511,
      "perigee_km": 19728.377760274027,
      "latitude_deg": -10.676902018271448,
      "longitude_deg": -137.8535554572673,
      "height_km": 20408.96580852902,
      "semi_major_axis_km": 26559.39764102957,
      "eccentricity": 0.0170517,
      "inclination_deg": 55.1822,
      "raan_deg": 328.236,
      "arg_perigee_deg": 313.6726,
      "mean_anomaly_deg": 241.0281,
      "mean_motion_rev_day": 2.00574367
    }
  ]
}